{"type": "FeatureCollection", "features": [ {"type": "Feature", "properties": {"norad_id": 30528, "name": "FENGYUN 1C DEB", "group": "fengyun-1c-debris", "lat": -11.417139226742409, "lon": 27.02042832228872, "alt_km": 796.943808271335, "timestamp": "2025-12-04T10:51:50.382451+00:00", "meta": {"OBJECT_NAME": "FENGYUN 1C DEB", "OBJECT_ID": "1999-025AJS", "EPOCH": "2025-12-03T02:25:03.459936", "MEAN_MOTION": 14.13470171, "ECCENTRICITY": 0.0143183, "INCLINATION": 98.2385, "RA_OF_ASC_NODE": 207.4511, "ARG_OF_PERICENTER": 254.0115, "MEAN_ANOMALY": 263.4059, "EPHEMERIS_TYPE": 0, "CLASSIFICATION_TYPE": "U", "NORAD_CAT_ID": 30528, "ELEMENT_SET_NO": 999, "REV_AT_EPOCH": 97001, "BSTAR": 0.00050062932, "MEAN_MOTION_DOT": 9.98e-06, "MEAN_MOTION_DDOT": 0}, "tle": {"line1": "1 30528U 99025AJS 25337.10073449  .00000998  00000+0  50063-3 0  9993", "line2": "2 30528  98.2385 207.4511 0143183 254.0115 263.4059 14.13470171970018"}}, "geometry": {"type": "Point", "coordinates": [27.02042832228872, -11.417139226742409]}}, {"type": "Feature", "properties": {"norad_id": 30529, "name": "FENGYUN 1C DEB", "group": "fengyun-1c-debris", "lat": -43.278637145409206, "lon": 73.18822189118289, "alt_km": 840.8655500963359, "timestamp": "2025-12-04T10:51:50.382461+00:00", "meta": {"OBJECT_NAME": "FENGYUN 1C DEB", "OBJECT_ID": "1999-025AJT", "EPOCH": "2025-11-29T05:27:15.583680", "MEAN_MOTION": 13.71563264, "ECCENTRICITY": 0.02312369, "INCLINATION": 98.4867, "RA_OF_ASC_NODE": 256.6436, "ARG_OF_PERICENTER": 258.7814, "MEAN_ANOMALY": 98.7267, "EPHEMERIS_TYPE": 0, "CLASSIFICATION_TYPE": "U", "NORAD_CAT_ID": 30529, "ELEMENT_SET_NO": 999, "REV_AT_EPOCH": 93823, "BSTAR": 0.0010152988, "MEAN_MOTION_DOT": 1.068e-05, "MEAN_MOTION_DDOT": 0}, "tle": {"line1": "1 30529U 99025AJT 25333.22726370  .00001068  00000+0  10153-2 0  9995", "line2": "2 30529  98.4867 256.6436 0231236 258.7814  98.7267 13.71563264938239"}}, "geometry": {"type": "Point", "coordinates": [73.18822189118289, -43.278637145409206]}}, {"type": "Feature", "properties": {"norad_id": 30530, "name": "FENGYUN 1C DEB", "group": "fengyun-1c-debris", "lat": 55.21465293163772, "lon": 4.74786589041086, "alt_km": 781.9757883343282, "timestamp": "2025-12-04T10:51:50.382471+00:00", "meta": {"OBJECT_NAME": "FENGYUN 1C DEB", "OBJECT_ID": "1999-025AJU", "EPOCH": "2025-12-03T09:36:12.085632", "MEAN_MOTION": 14.36759273, "ECCENTRICITY": 0.00998275, "INCLINATION": 98.3976, "RA_OF_ASC_NODE": 15.9992, "ARG_OF_PERICENTER": 164.51, "MEAN_ANOMALY": 211.8981, "EPHEMERIS_TYPE": 0, "CLASSIFICATION_TYPE": "U", "NORAD_CAT_ID": 30530, "ELEMENT_SET_NO": 999, "REV_AT_EPOCH": 98651, "BSTAR": 0.00037407697, "MEAN_MOTION_DOT": 1.124e-05, "MEAN_MOTION_DDOT": 0}, "tle": {"line1": "1 30530U 99025AJU 25337.40013988  .00001124  00000+0  37408-3 0  9991", "line2": "2 30530  98.3976  15.9992 0099827 164.5100 211.8981 14.36759273986518"}}, "geometry": {"type": "Point", "coordinates": [4.74786589041086, 55.21465293163772]}}, {"type": "Feature", "properties": {"norad_id": 30531, "name": "FENGYUN 1C DEB", "group": "fengyun-1c-debris", "lat": 68.80173460885393, "lon": 126.3418286212849, "alt_km": 701.228250802712, "timestamp": "2025-12-04T10:51:50.382481+00:00", "meta": {"OBJECT_NAME": "FENGYUN 1C DEB", "OBJECT_ID": "1999-025AJV", "EPOCH": "2025-12-02T10:52:29.173152", "MEAN_MOTION": 14.61149608, "ECCENTRICITY": 0.00296494, "INCLINATION": 102.3095, "RA_OF_ASC_NODE": 157.6437, "ARG_OF_PERICENTER": 233.0131, "MEAN_ANOMALY": 126.8339, "EPHEMERIS_TYPE": 0, "CLASSIFICATION_TYPE": "U", "NORAD_CAT_ID": 30531, "ELEMENT_SET_NO": 999, "REV_AT_EPOCH": 97545, "BSTAR": 0.0056197798, "MEAN_MOTION_DOT": 0.00027868, "MEAN_MOTION_DDOT": 0}, "tle": {"line1": "1 30531U 99025AJV 25336.45311543  .00027868  00000+0  56198-2 0  9993", "line2": "2 30531 102.3095 157.6437 0029649 233.0131 126.8339 14.61149608975452"}}, "geometry": {"type": "Point", "coordinates": [126.3418286212849, 68.80173460885393]}}, {"type": "Feature", "properties": {"norad_id": 30532, "name": "FENGYUN 1C DEB", "group": "fengyun-1c-debris", "lat": 9.419075673616085, "lon": -154.5367360524227, "alt_km": 517.1758937860977, "timestamp": "2025-12-04T10:51:50.382491+00:00", "meta": {"OBJECT_NAME": "FENGYUN 1C DEB", "OBJECT_ID": "1999-025AJW", "EPOCH": "2025-12-03T19:53:09.788928", "MEAN_MOTION": 15.18895154, "ECCENTRICITY": 0.00285273, "INCLINATION": 96.9616, "RA_OF_ASC_NODE": 23.7265, "ARG_OF_PERICENTER": 286.2659, "MEAN_ANOMALY": 73.5439, "EPHEMERIS_TYPE": 0, "CLASSIFICATION_TYPE": "U", "NORAD_CAT_ID": 30532, "ELEMENT_SET_NO": 999, "REV_AT_EPOCH": 97552, "BSTAR": 0.01996009, "MEAN_MOTION_DOT": 0.00445843, "MEAN_MOTION_DDOT": 0}, "tle": {"line1": "1 30532U 99025AJW 25337.82858552  .00445843  00000+0  19960-1 0  9994", "line2": "2 30532  96.9616  23.7265 0028527 286.2659  73.5439 15.18895154975525"}}, "geometry": {"type": "Point", "coordinates": [-154.5367360524227, 9.419075673616085]}}, {"type": "Feature", "properties": {"norad_id": 30533, "name": "FENGYUN 1C DEB", "group": "fengyun-1c-debris", "lat": -67.84154415579818, "lon": 129.2676911458997, "alt_km": 748.2020296484843, "timestamp": "2025-12-04T10:51:50.382501+00:00", "meta": {"OBJECT_NAME": "FENGYUN 1C DEB", "OBJECT_ID": "1999-025AJX", "EPOCH": "2025-12-02T21:45:10.641888", "MEAN_MOTION": 14.53268138, "ECCENTRICITY": 0.00842172, "INCLINATION": 98.8346, "RA_OF_ASC_NODE": 105.1869, "ARG_OF_PERICENTER": 178.6429, "MEAN_ANOMALY": 305.573, "EPHEMERIS_TYPE": 0, "CLASSIFICATION_TYPE": "U", "NORAD_CAT_ID": 30533, "ELEMENT_SET_NO": 999, "REV_AT_EPOCH": 97678, "BSTAR": 0.005489461, "MEAN_MOTION_DOT": 0.00023899, "MEAN_MOTION_DDOT": 0}, "tle": {"line1": "1 30533U 99025AJX 25336.90637317  .00023899  00000+0  54895-2 0  9997", "line2": "2 30533  98.8346 105.1869 0084217 178.6429 305.5730 14.53268138976784"}}, "geometry": {"type": "Point", "coordinates": [129.2676911458997, -67.84154415579818]}}, {"type": "Feature", "properties": {"norad_id": 30539, "name": "FENGYUN 1C DEB", "group": "fengyun-1c-debris", "lat": -36.40179320194004, "lon": -34.993644376402386, "alt_km": 638.3138211808491, "timestamp": "2025-12-04T10:51:50.382511+00:00", "meta": {"OBJECT_NAME": "FENGYUN 1C DEB", "OBJECT_ID": "1999-025AKD", "EPOCH": "2025-12-03T21:49:47.229888", "MEAN_MOTION": 14.55311552, "ECCENTRICITY": 0.01159425, "INCLINATION": 98.8784, "RA_OF_ASC_NODE": 317.8113, "ARG_OF_PERICENTER": 302.8294, "MEAN_ANOMALY": 56.1779, "EPHEMERIS_TYPE": 0, "CLASSIFICATION_TYPE": "U", "NORAD_CAT_ID": 30539, "ELEMENT_SET_NO": 999, "REV_AT_EPOCH": 99237, "BSTAR": 0.0016014058, "MEAN_MOTION_DOT": 7.548e-05, "MEAN_MOTION_DDOT": 0}, "tle": {"line1": "1 30539U 99025AKD 25337.90957442  .00007548  00000+0  16014-2 0  9992", "line2": "2 30539  98.8784 317.8113 0115942 302.8294  56.1779 14.55311552992377"}}, "geometry": {"type": "Point", "coordinates": [-34.993644376402386, -36.40179320194004]}}, {"type": "Feature", "properties": {"norad_id": 30540, "name": "FENGYUN 1C DEB", "group": "fengyun-1c-debris", "lat": 38.06957648623741, "lon": -86.36673778013937, "alt_km": 759.6727676317387, "timestamp": "2025-12-04T10:51:50.382547+00:00", "meta": {"OBJECT_NAME": "FENGYUN 1C DEB", "OBJECT_ID": "1999-025AKE", "EPOCH": "2025-12-03T05:50:42.873792", "MEAN_MOTION": 14.32105419, "ECCENTRICITY": 0.0052542, "INCLINATION": 98.8792, "RA_OF_ASC_NODE": 85.3632, "ARG_OF_PERICENTER": 90.5679, "MEAN_ANOMALY": 300.0484, "EPHEMERIS_TYPE": 0, "CLASSIFICATION_TYPE": "U", "NORAD_CAT_ID": 30540, "ELEMENT_SET_NO": 999, "REV_AT_EPOCH": 97150, "BSTAR": 0.0028388, "MEAN_MOTION_DOT": 7.712e-05, "MEAN_MOTION_DDOT": 0}, "tle": {"line1": "1 30540U 99025AKE 25337.24355178  .00007712  00000+0  28388-2 0  9999", "line2": "2 30540  98.8792  85.3632 0052542  90.5679 300.0484 14.32105419971509"}}, "geometry": {"type": "Point", "coordinates": [-86.36673778013937, 38.06957648623741]}}, {"type": "Feature", "properties": {"norad_id": 30541, "name": "FENGYUN 1C DEB", "group": "fengyun-1c-debris", "lat": 80.94757350950935, "lon": -48.75734818805941, "alt_km": 795.2508080902016, "timestamp": "2025-12-04T10:51:50.382559+00:00", "meta": {"OBJECT_NAME": "FENGYUN 1C DEB", "OBJECT_ID": "1999-025AKF", "EPOCH": "2025-12-03T19:16:01.299648", "MEAN_MOTION": 14.22982304, "ECCENTRICITY": 0.00187445, "INCLINATION": 98.6956, "RA_OF_ASC_NODE": 24.4581, "ARG_OF_PERICENTER": 110.7317, "MEAN_ANOMALY": 249.5872, "EPHEMERIS_TYPE": 0, "CLASSIFICATION_TYPE": "U", "NORAD_CAT_ID": 30541, "ELEMENT_SET_NO": 999, "REV_AT_EPOCH": 97200, "BSTAR": 0.0021025433, "MEAN_MOTION_DOT": 4.701e-05, "MEAN_MOTION_DDOT": 0}, "tle": {"line1": "1 30541U 99025AKF 25337.80279282  .00004701  00000+0  21025-2 0  9999", "line2": "2 30541  98.6956  24.4581 0018744 110.7317 249.5872 14.22982304972006"}}, "geometry": {"type": "Point", "coordinates": [-48.75734818805941, 80.94757350950935]}}, {"type": "Feature", "properties": {"norad_id": 30542, "name": "FENGYUN 1C DEB", "group": "fengyun-1c-debris", "lat": 71.01569009789637, "lon": -19.287260410977424, "alt_km": 857.6721080797452, "timestamp": "2025-12-04T10:51:50.382570+00:00", "meta": {"OBJECT_NAME": "FENGYUN 1C DEB", "OBJECT_ID": "1999-025AKG", "EPOCH": "2025-12-03T20:00:09.309312", "MEAN_MOTION": 14.06965886, "ECCENTRICITY": 0.00278618, "INCLINATION": 98.788, "RA_OF_ASC_NODE": 6.8326, "ARG_OF_PERICENTER": 359.6609, "MEAN_ANOMALY": 178.4858, "EPHEMERIS_TYPE": 0, "CLASSIFICATION_TYPE": "U", "NORAD_CAT_ID": 30542, "ELEMENT_SET_NO": 999, "REV_AT_EPOCH": 96793, "BSTAR": 0.00038619824, "MEAN_MOTION_DOT": 6.04e-06, "MEAN_MOTION_DDOT": 0}, "tle": {"line1": "1 30542U 99025AKG 25337.83344108  .00000604  00000+0  38620-3 0  9991", "line2": "2 30542  98.7880   6.8326 0027861 359.6609 178.4858 14.06965886967931"}}, "geometry": {"type": "Point", "coordinates": [-19.287260410977424, 71.01569009789637]}}]}